{"type": "FeatureCollection", "features": [ {"type": "Feature", "properties": {"norad_id": 66870, "name": "STARLINK-36114", "group": "last-30-days", "lat": 4.735512960269793, "lon": 40.11833021249883, "alt_km": 414.55101118960374, "timestamp": "2025-12-27T04:40:44.219697+00:00", "meta": {"OBJECT_NAME": "STARLINK-36114", "OBJECT_ID": "2025-281Y", "EPOCH": "2025-12-26T22:00:01.999584", "MEAN_MOTION": 15.50535159, "ECCENTRICITY": 0.00011842, "INCLINATION": 43.0004, "RA_OF_ASC_NODE": 36.6462, "ARG_OF_PERICENTER": 243.2743, "MEAN_ANOMALY": 8.6009, "EPHEMERIS_TYPE": 0, "CLASSIFICATION_TYPE": "U", "NORAD_CAT_ID": 66870, "ELEMENT_SET_NO": 999, "REV_AT_EPOCH": 356, "BSTAR": 0.0017786764, "MEAN_MOTION_DOT": 0.00105253, "MEAN_MOTION_DDOT": 0}, "tle": {"line1": "1 66870U 25281Y   25360.91668981  .00105253  00000+0  17787-2 0  9996", "line2": "2 66870  43.0004  36.6462 0001184 243.2743   8.6009 15.50535159  3562"}}, "geometry": {"type": "Point", "coordinates": [40.11833021249883, 4.735512960269793]}}, {"type": "Feature", "properties": {"norad_id": 66871, "name": "STARLINK-36095", "group": "last-30-days", "lat": 6.03650402544797, "lon": 41.52891810457808, "alt_km": 414.354539348883, "timestamp": "2025-12-27T04:40:44.219709+00:00", "meta": {"OBJECT_NAME": "STARLINK-36095", "OBJECT_ID": "2025-281Z", "EPOCH": "2025-12-26T22:00:01.999584", "MEAN_MOTION": 15.50531616, "ECCENTRICITY": 0.00010038, "INCLINATION": 43.0005, "RA_OF_ASC_NODE": 36.6409, "ARG_OF_PERICENTER": 241.3454, "MEAN_ANOMALY": 12.4537, "EPHEMERIS_TYPE": 0, "CLASSIFICATION_TYPE": "U", "NORAD_CAT_ID": 66871, "ELEMENT_SET_NO": 999, "REV_AT_EPOCH": 369, "BSTAR": 0.0017455222, "MEAN_MOTION_DOT": 0.00103245, "MEAN_MOTION_DDOT": 0}, "tle": {"line1": "1 66871U 25281Z   25360.91668981  .00103245  00000+0  17455-2 0  9998", "line2": "2 66871  43.0005  36.6409 0001003 241.3454  12.4537 15.50531616  3690"}}, "geometry": {"type": "Point", "coordinates": [41.52891810457808, 6.03650402544797]}}, {"type": "Feature", "properties": {"norad_id": 66872, "name": "STARLINK-36082", "group": "last-30-days", "lat": 7.333392281912801, "lon": 42.946443212459414, "alt_km": 414.22836983819707, "timestamp": "2025-12-27T04:40:44.219720+00:00", "meta": {"OBJECT_NAME": "STARLINK-36082", "OBJECT_ID": "2025-281AA", "EPOCH": "2025-12-26T22:00:01.999584", "MEAN_MOTION": 15.5053445, "ECCENTRICITY": 0.0001289, "INCLINATION": 43.0005, "RA_OF_ASC_NODE": 36.6362, "ARG_OF_PERICENTER": 247.2615, "MEAN_ANOMALY": 8.4491, "EPHEMERIS_TYPE": 0, "CLASSIFICATION_TYPE": "U", "NORAD_CAT_ID": 66872, "ELEMENT_SET_NO": 999, "REV_AT_EPOCH": 356, "BSTAR": 0.0017042118, "MEAN_MOTION_DOT": 0.00100772, "MEAN_MOTION_DDOT": 0}, "tle": {"line1": "1 66872U 25281AA  25360.91668981  .00100772  00000+0  17042-2 0  9993", "line2": "2 66872  43.0005  36.6362 0001289 247.2615   8.4491 15.50534450  3568"}}, "geometry": {"type": "Point", "coordinates": [42.946443212459414, 7.333392281912801]}}, {"type": "Feature", "properties": {"norad_id": 66873, "name": "STARLINK-36128", "group": "last-30-days", "lat": 11.19402919551071, "lon": 47.25420484772121, "alt_km": 413.7761940595101, "timestamp": "2025-12-27T04:40:44.219730+00:00", "meta": {"OBJECT_NAME": "STARLINK-36128", "OBJECT_ID": "2025-281AB", "EPOCH": "2025-12-26T22:00:01.999584", "MEAN_MOTION": 15.50536574, "ECCENTRICITY": 0.00012253, "INCLINATION": 43.0005, "RA_OF_ASC_NODE": 36.6211, "ARG_OF_PERICENTER": 240.1024, "MEAN_ANOMALY": 21.3588, "EPHEMERIS_TYPE": 0, "CLASSIFICATION_TYPE": "U", "NORAD_CAT_ID": 66873, "ELEMENT_SET_NO": 999, "REV_AT_EPOCH": 369, "BSTAR": 0.0017312994, "MEAN_MOTION_DOT": 0.00102408, "MEAN_MOTION_DDOT": 0}, "tle": {"line1": "1 66873U 25281AB  25360.91668981  .00102408  00000+0  17313-2 0  9993", "line2": "2 66873  43.0005  36.6211 0001225 240.1024  21.3588 15.50536574  3692"}}, "geometry": {"type": "Point", "coordinates": [47.25420484772121, 11.19402919551071]}}, {"type": "Feature", "properties": {"norad_id": 66874, "name": "STARLINK-36129", "group": "last-30-days", "lat": 8.63419201542592, "lon": 44.38152700874366, "alt_km": 414.03554901316966, "timestamp": "2025-12-27T04:40:44.219740+00:00", "meta": {"OBJECT_NAME": "STARLINK-36129", "OBJECT_ID": "2025-281AC", "EPOCH": "2025-12-26T22:00:01.999584", "MEAN_MOTION": 15.50577562, "ECCENTRICITY": 0.00011895, "INCLINATION": 43.0006, "RA_OF_ASC_NODE": 36.6315, "ARG_OF_PERICENTER": 243.701, "MEAN_ANOMALY": 13.9132, "EPHEMERIS_TYPE": 0, "CLASSIFICATION_TYPE": "U", "NORAD_CAT_ID": 66874, "ELEMENT_SET_NO": 999, "REV_AT_EPOCH": 369, "BSTAR": 0.00072441856, "MEAN_MOTION_DOT": 0.00042384, "MEAN_MOTION_DDOT": 0}, "tle": {"line1": "1 66874U 25281AC  25360.91668981  .00042384  00000+0  72442-3 0  9995", "line2": "2 66874  43.0006  36.6315 0001189 243.7010  13.9132 15.50577562  3696"}}, "geometry": {"type": "Point", "coordinates": [44.38152700874366, 8.63419201542592]}}, {"type": "Feature", "properties": {"norad_id": 66875, "name": "STARLINK-36053", "group": "last-30-days", "lat": 12.462594033344336, "lon": 48.707212711086484, "alt_km": 413.58822720783064, "timestamp": "2025-12-27T04:40:44.219750+00:00", "meta": {"OBJECT_NAME": "STARLINK-36053", "OBJECT_ID": "2025-281AD", "EPOCH": "2025-12-26T22:00:01.999584", "MEAN_MOTION": 15.5053329, "ECCENTRICITY": 0.00012144, "INCLINATION": 43.0004, "RA_OF_ASC_NODE": 36.6156, "ARG_OF_PERICENTER": 241.8927, "MEAN_ANOMALY": 21.4801, "EPHEMERIS_TYPE": 0, "CLASSIFICATION_TYPE": "U", "NORAD_CAT_ID": 66875, "ELEMENT_SET_NO": 999, "REV_AT_EPOCH": 369, "BSTAR": 0.0017607896, "MEAN_MOTION_DOT": 0.0010417, "MEAN_MOTION_DDOT": 0}, "tle": {"line1": "1 66875U 25281AD  25360.91668981  .00104170  00000+0  17608-2 0  9990", "line2": "2 66875  43.0004  36.6156 0001214 241.8927  21.4801 15.50533290  3690"}}, "geometry": {"type": "Point", "coordinates": [48.707212711086484, 12.462594033344336]}}, {"type": "Feature", "properties": {"norad_id": 66876, "name": "STARLINK-35702", "group": "last-30-days", "lat": 9.911989535828999, "lon": 45.806463057646106, "alt_km": 413.84171770499415, "timestamp": "2025-12-27T04:40:44.219762+00:00", "meta": {"OBJECT_NAME": "STARLINK-35702", "OBJECT_ID": "2025-281AE", "EPOCH": "2025-12-26T22:00:01.999584", "MEAN_MOTION": 15.50536569, "ECCENTRICITY": 0.00011492, "INCLINATION": 43.0004, "RA_OF_ASC_NODE": 36.6263, "ARG_OF_PERICENTER": 246.3545, "MEAN_ANOMALY": 13.1869, "EPHEMERIS_TYPE": 0, "CLASSIFICATION_TYPE": "U", "NORAD_CAT_ID": 66876, "ELEMENT_SET_NO": 999, "REV_AT_EPOCH": 369, "BSTAR": 0.0017841849, "MEAN_MOTION_DOT": 0.0010559, "MEAN_MOTION_DDOT": 0}, "tle": {"line1": "1 66876U 25281AE  25360.91668981  .00105590  00000+0  17842-2 0  9998", "line2": "2 66876  43.0004  36.6263 0001149 246.3545  13.1869 15.50536569  3697"}}, "geometry": {"type": "Point", "coordinates": [45.806463057646106, 9.911989535828999]}}, {"type": "Feature", "properties": {"norad_id": 66877, "name": "ZQ-3 R/B", "group": "last-30-days", "lat": 21.47365291883796, "lon": 15.939040427446248, "alt_km": 940.1448307594173, "timestamp": "2025-12-27T04:40:44.219772+00:00", "meta": {"OBJECT_NAME": "ZQ-3 R/B", "OBJECT_ID": "2025-282A", "EPOCH": "2025-12-26T17:16:15.910176", "MEAN_MOTION": 14.88008524, "ECCENTRICITY": 0.06613306, "INCLINATION": 56.9484, "RA_OF_ASC_NODE": 2.9971, "ARG_OF_PERICENTER": 244.7229, "MEAN_ANOMALY": 108.3888, "EPHEMERIS_TYPE": 0, "CLASSIFICATION_TYPE": "U", "NORAD_CAT_ID": 66877, "ELEMENT_SET_NO": 999, "REV_AT_EPOCH": 345, "BSTAR": 0.00016026682, "MEAN_MOTION_DOT": 0.00975006, "MEAN_MOTION_DDOT": 7.991729e-06}, "tle": {"line1": "1 66877U 25282A   25360.71962859  .00975006  79917-5  16027-3 0  9990", "line2": "2 66877  56.9484   2.9971 0661330 244.7229 108.3888 14.88008524  3457"}}, "geometry": {"type": "Point", "coordinates": [15.939040427446248, 21.47365291883796]}}, {"type": "Feature", "properties": {"norad_id": 66878, "name": "STARLINK-35866", "group": "last-30-days", "lat": -2.7377229519424295, "lon": -175.89844863464404, "alt_km": 408.42776348050575, "timestamp": "2025-12-27T04:40:44.219783+00:00", "meta": {"OBJECT_NAME": "STARLINK-35866", "OBJECT_ID": "2025-283A", "EPOCH": "2025-12-26T22:00:01.999584", "MEAN_MOTION": 15.54470234, "ECCENTRICITY": 0.00010439, "INCLINATION": 53.1594, "RA_OF_ASC_NODE": 3.387, "ARG_OF_PERICENTER": 83.7598, "MEAN_ANOMALY": 342.064, "EPHEMERIS_TYPE": 0, "CLASSIFICATION_TYPE": "U", "NORAD_CAT_ID": 66878, "ELEMENT_SET_NO": 999, "REV_AT_EPOCH": 470, "BSTAR": -0.033264683, "MEAN_MOTION_DOT": -0.01993043, "MEAN_MOTION_DDOT": 0}, "tle": {"line1": "1 66878U 25283A   25360.91668981 -.01993043  00000+0 -33265-1 0  9999", "line2": "2 66878  53.1594   3.3870 0001043  83.7598 342.0640 15.54470234  4708"}}, "geometry": {"type": "Point", "coordinates": [-175.89844863464404, -2.7377229519424295]}}, {"type": "Feature", "properties": {"norad_id": 66879, "name": "STARLINK-35749", "group": "last-30-days", "lat": -5.799966807900736, "lon": -173.5942483993681, "alt_km": 408.8866411807512, "timestamp": "2025-12-27T04:40:44.219795+00:00", "meta": {"OBJECT_NAME": "STARLINK-35749", "OBJECT_ID": "2025-283B", "EPOCH": "2025-12-26T22:00:01.999584", "MEAN_MOTION": 15.54466745, "ECCENTRICITY": 0.00011809, "INCLINATION": 53.1596, "RA_OF_ASC_NODE": 3.3782, "ARG_OF_PERICENTER": 82.5796, "MEAN_ANOMALY": 347.0779, "EPHEMERIS_TYPE": 0, "CLASSIFICATION_TYPE": "U", "NORAD_CAT_ID": 66879, "ELEMENT_SET_NO": 999, "REV_AT_EPOCH": 470, "BSTAR": -0.033158013, "MEAN_MOTION_DOT": -0.01987165, "MEAN_MOTION_DDOT": 0}, "tle": {"line1": "1 66879U 25283B   25360.91668981 -.01987165  00000+0 -33158-1 0  9999", "line2": "2 66879  53.1596   3.3782 0001180  82.5796 347.0779 15.54466745  4702"}}, "geometry": {"type": "Point", "coordinates": [-173.5942483993681, -5.799966807900736]}}]}